STARLINK-4197           
1 52849U 22062V   25049.91190490  .00004960  00000+0  32953-3 0  9996
2 52849  53.2184 306.9638 0001087 101.3261 258.7854 15.08835615147988
STARLINK-4187           
1 52850U 22062W   25049.95613493  .00000860  00000+0  72102-4 0  9991
2 52850  53.2189 317.1266 0001366  88.1154 271.9995 15.08834049147858
STARLINK-3809           
1 52851U 22062X   25049.90821551  .00000578  00000+0  54430-4 0  9993
2 52851  53.2175 306.9791 0001478  90.3049 269.8113 15.08835042148476
STARLINK-4184           
1 52852U 22062Y   25049.91557808  .00000321  00000+0  38246-4 0  9999
2 52852  53.2199 306.9443 0001575 115.7860 244.3295 15.08830103147985
STARLINK-4189           
1 52853U 22062Z   25049.96437579 -.00001907  00000+0 -10182-3 0  9998
2 52853  53.2185 306.7041 0001370  81.4461 278.6687 15.08827819147998
STARLINK-4204           
1 52854U 22062AA  25049.90453793  .00000458  00000+0  46882-4 0  9994
2 52854  53.2179 306.9988 0001374  86.7895 273.3254 15.08832712148471
STARLINK-4209           
1 52855U 22062AB  25049.95974178 -.00000631  00000+0 -21564-4 0  9990
2 52855  53.2187 306.7533 0001423  83.6027 276.5127 15.08832954147991
STARLINK-4201           
1 52856U 22062AC  25049.90182091 -.00000796  00000+0 -31918-4 0  9997
2 52856  53.2192 307.0582 0001565  83.6963 276.4207 15.08826438148474
STARLINK-4199           
1 52857U 22062AD  25049.95237972 -.00000206  00000+0  51562-5 0  9995
2 52857  53.2186 306.7880 0001302  97.5044 262.6096 15.08835448147998
STARLINK-4198           
1 52858U 22062AE  25049.96341660  .00001067  00000+0  85101-4 0  9997
2 52858  53.2160 306.7638 0001320  82.4546 277.6596 15.08840699147997
STARLINK-4196           
1 52859U 22062AF  25049.94869828 -.00000419  00000+0 -81990-5 0  9992
2 52859  53.2197 306.8095 0001766 103.8851 256.2338 15.08834409147996
STARLINK-4191           
1 52860U 22062AG  25049.95606011 -.00000504  00000+0 -13593-4 0  9996
2 52860  53.2172 306.7692 0001425  80.4847 279.6306 15.08833547147996
STARLINK-4112           
1 52861U 22062AH  25049.93125522  .00001185  00000+0  92530-4 0  9990
2 52861  53.2187 306.8892 0002113 126.1928 233.9260 15.08837738147997
STARLINK-4010           
1 52862U 22062AJ  25049.94501994  .00000621  00000+0  57111-4 0  9993
2 52862  53.2193 306.8219 0001456 102.2672 257.8484 15.08831493147993
STARLINK-4270           
1 52863U 22062AK  25049.93766133 -.00000198  00000+0  56739-5 0  9997
2 52863  53.2188 306.8586 0001686 119.1989 240.9172 15.08829823147999
STARLINK-4267           
1 52864U 22062AL  25049.94135096  .00014250  00000+0  91149-3 0  9992
2 52864  53.2169 306.8332 0001879  71.5191 288.6005 15.08845239147991
STARLINK-4274           
1 52865U 22062AM  25049.92661288  .00000277  00000+0  35486-4 0  9995
2 52865  53.2185 306.8985 0001285 105.9603 254.1530 15.08836604147992
STARLINK-4272           
1 52866U 22062AN  25049.93396796 -.00001985  00000+0 -10666-3 0  9997
2 52866  53.2170 306.8672 0001369  95.1882 264.9267 15.08841859147996
STARLINK-4126           
1 52867U 22062AP  25049.91924976  .00001014  00000+0  81784-4 0  9994
2 52867  53.2181 306.9315 0001721 109.6248 250.4930 15.08846196147999
STARLINK-4261           
1 52868U 22062AQ  25049.93029809  .00001285  00000+0  98843-4 0  9992
2 52868  53.2177 306.9116 0001450  88.9591 271.1567 15.08835433147991
STARLINK-4266           
1 52869U 22062AR  25049.91282432  .00000742  00000+0  64701-4 0  9997
2 52869  53.2165 296.9628 0001278  88.1814 271.9324 15.08836073148129
STARLINK-4195           
1 52870U 22062AS  25049.92292916  .00000233  00000+0  32762-4 0  9995
2 52870  53.2186 306.9151 0001539 107.8329 252.2831 15.08840614147992
STARLINK-4207           
1 52871U 22062AT  25049.96801046  .00001278  00000+0  98375-4 0  9992
2 52871  53.2188 296.7166 0001382  95.1171 264.9979 15.08840426148138
STARLINK-4213           
1 52872U 22062AU  25049.90640658  .00000699  00000+0  61994-4 0  9990
2 52872  53.2185 296.9625 0001554  87.0887 273.0283 15.08838415148610
STARLINK-4211           
1 52873U 22062AV  25049.96063372 -.00005211  00000+0 -30958-3 0  9991
2 52873  53.2174 296.7451 0001649  60.9722 299.1435 15.08835864148137
STARLINK-4210           
1 52874U 22062AW  25049.90546019 -.00000073  00000+0  13521-4 0  9998
2 52874  53.2180 296.9947 0001344  86.1515 273.9631 15.08828864148612
STARLINK-4193           
1 52875U 22062AX  25049.95697594  .00000587  00000+0  54958-4 0  9997
2 52875  53.2169 296.7619 0001503  91.0800 269.0365 15.08832455148131
STARLINK-4200           
1 52876U 22062AY  25049.96433314  .00000969  00000+0  78995-4 0  9998
2 52876  53.2176 296.7320 0001371  87.8689 272.2460 15.08835842148135
STARLINK-4214           
1 52877U 22062AZ  25049.93121873  .00000529  00000+0  51339-4 0  9995
2 52877  53.2192 296.8882 0001558  69.9093 290.2067 15.08835781148130
STARLINK-4171           
1 52878U 22062BA  25049.95329391 -.00002844  00000+0 -16068-3 0  9996
2 52878  53.2159 296.7779 0001439  94.0008 266.1149 15.08839467148139
STARLINK-4139           
1 52879U 22062BB  25049.92017560 -.00000424  00000+0 -85744-5 0  9997
2 52879  53.2181 296.9312 0001307  90.2454 269.8688 15.08839234148137
STARLINK-4186           
1 52880U 22062BC  25049.92385437 -.00000164  00000+0  77683-5 0  9993
2 52880  53.2196 296.9185 0001700 116.3827 243.7340 15.08843447148131
STARLINK-4181           
1 52882U 22062BE  25049.94220764  .00000146  00000+0  27288-4 0  9992
2 52882  53.2165 296.4057 0001169  88.0600 272.0526 15.08830750148140
STARLINK-4260           
1 52986U 22076A   25049.32032320  .00000192  00000+0  30172-4 0  9990
2 52986  53.2192  19.6159 0001603  98.6228 261.4946 15.08855462144814
STARLINK-4259           
1 52987U 22076B   25049.62485051  .00002741  00000+0  19019-3 0  9995
2 52987  53.2185  28.2524 0001615  89.7307 270.3871 15.08850469144729
STARLINK-4291           
1 52988U 22076C   25049.91281475  .00000405  00000+0  43523-4 0  9995
2 52988  53.2182  16.9574 0001491  94.7777 265.3386 15.08836487145376
STARLINK-4293           
1 52989U 22076D   25049.35620896  .00000389  00000+0  42558-4 0  9996
2 52989  53.2182  29.4590 0001404  91.4787 268.6366 15.08842875144688
STARLINK-4286           
1 52990U 22076E   25049.94869436  .00001113  00000+0  88028-4 0  9996
2 52990  53.2187  26.7947 0001723  86.6353 273.4836 15.08836464144773
STARLINK-4285           
1 52991U 22076F   25049.34885224  .00000436  00000+0  45486-4 0  9992
2 52991  53.2187  29.4901 0001646  98.2678 261.8501 15.08837111144687
STARLINK-4269           
1 52992U 22076G   25049.94229472  .00001708  00000+0  12538-3 0  9990
2 52992  53.2182  26.8349 0001444  89.1064 271.0093 15.08838614144772
STARLINK-4264           
1 52993U 22076H   25049.64417116  .00002799  00000+0  19383-3 0  9998
2 52993  53.2180  18.1639 0001294  83.2296 276.8843 15.08851237144864
STARLINK-4256           
1 52994U 22076J   25049.64048763 -.00001756  00000+0 -92284-4 0  9993
2 52994  53.2182  18.1821 0001952  88.1271 271.9945 15.08833655144861
STARLINK-4296           
1 52995U 22076K   25049.63313451 -.00002122  00000+0 -11526-3 0  9999
2 52995  53.2193  18.2174 0001502  91.3250 268.7915 15.08850173144865
STARLINK-4295           
1 52996U 22076L   25049.92853055  .00002998  00000+0  20645-3 0  9992
2 52996  53.2187  17.1716 0001383  93.3013 266.8138 15.08820836144909
STARLINK-4254           
1 52998U 22076N   25049.62207654  .00004301  00000+0  28809-3 0  9999
2 52998  53.2192  18.1797 0001556  94.0642 266.0528 15.08847135144866
STARLINK-4217           
1 52999U 22076P   25049.61472509 -.00000922  00000+0 -39845-4 0  9992
2 52999  53.2186  18.3005 0001214  95.9204 264.1927 15.08847937145334
STARLINK-4194           
1 53000U 22076Q   25049.29826091 -.00002174  00000+0 -11859-3 0  9994
2 53000  53.2189  19.7212 0001420  89.0038 271.1117 15.08829320144811
STARLINK-4190           
1 53001U 22076R   25049.61105015 -.00001344  00000+0 -66358-4 0  9990
2 53001  53.2199  18.3209 0001601 100.2199 259.8974 15.08838321145332
STARLINK-4121           
1 53002U 22076S   25049.62576775  .00000351  00000+0  40110-4 0  9990
2 53002  53.2210  18.2500 0001721  77.4063 282.7122 15.08852872144862
STARLINK-4255           
1 53003U 22076T   25049.60368842 -.00000060  00000+0  14302-4 0  9995
2 53003  53.2176  18.3437 0001365  87.2295 272.8853 15.08854749145333
STARLINK-4253           
1 53004U 22076U   25049.61842679  .00012857  00000+0  82374-3 0  9991
2 53004  53.2175  18.2833 0001187  99.3461 260.7665 15.08869472144866
STARLINK-4288           
1 53005U 22076V   25049.93121618  .00000424  00000+0  44725-4 0  9996
2 53005  53.2196  16.8800 0001372  94.6294 265.4855 15.08834577144913
STARLINK-4290           
1 53006U 22076W   25049.60737623  .00001220  00000+0  94723-4 0  9998
2 53006  53.2186  18.3339 0001909 102.5594 257.5612 15.08835459145335
STARLINK-4215           
1 53007U 22076X   25049.32768964  .00000810  00000+0  68945-4 0  9991
2 53007  53.2192  19.5849 0001550  91.6797 268.4373 15.08843200144828
STARLINK-4275           
1 53008U 22076Y   25049.92754366  .00005720  00000+0  37721-3 0  9991
2 53008  53.2185  16.8854 0001412  78.9189 281.1962 15.08839626144910
STARLINK-4277           
1 53009U 22076Z   25049.57885331 -.00002304  00000+0 -12676-3 0  9999
2 53009  53.2197   8.4595 0001608  80.8052 279.3122 15.08830954144991
STARLINK-4263           
1 53010U 22076AA  25049.63678446 -.00000332  00000+0 -27770-5 0  9997
2 53010  53.2201  17.9255 0001457  96.9749 263.1409 15.08836820144874
STARLINK-4265           
1 53011U 22076AB  25049.57516875  .00003057  00000+0  21003-3 0  9994
2 53011  53.2198   8.4757 0001444  93.8587 266.2570 15.08847521144990
STARLINK-4271           
1 53012U 22076AC  25049.92017597 -.00000426  00000+0 -86673-5 0  9996
2 53012  53.2196  16.9218 0001656 101.7114 258.4064 15.08833333144914
